STARLINK-36422          
1 67344U 26003L   26023.58335648  .00127261  00000+0  82201-3 0  9994
2 67344  42.9991 126.6205 0001399 278.7692 322.8754 15.74958520  3410
STARLINK-35676          
1 67345U 26003M   26023.58335648  .00111119  00000+0  71896-3 0  9998
2 67345  42.9991 126.6171 0001454 276.6595 326.8950 15.74975934  3414
STARLINK-36472          
1 67346U 26003N   26023.58335648  .00139181  00000+0  89747-3 0  9992
2 67346  42.9991 126.6119 0001480 278.3820 327.0936 15.74957513  3416
STARLINK-36420          
1 67347U 26003P   26023.58335648  .00061646  00000+0  40221-3 0  9997
2 67347  42.9991 126.6022 0001625 276.6404 332.6555 15.74997842  3429
STARLINK-36467          
1 67348U 26003Q   26023.58335648  .00084743  00000+0  55022-3 0  9996
2 67348  42.9991 126.6078 0001103 286.8474 320.5211 15.74998774  3422
STARLINK-36457          
1 67349U 26003R   26023.58335648  .00050971  00000+0  33331-3 0  9992
2 67349  42.9991 126.5976 0001325 273.2394 337.9653 15.75012525  3420
STARLINK-36475          
1 67350U 26003S   26023.58335648  .00045358  00000+0  29718-3 0  9991
2 67350  42.9990 126.5924 0001290 274.2593 338.8673 15.75009396  3410
STARLINK-36478          
1 67351U 26003T   26023.58335648 -.00001584  00000+0 -71990-5 0  9998
2 67351  42.9990 126.5876 0001431 267.7564 347.2881 15.75050988  3417
STARLINK-36479          
1 67352U 26003U   26023.58335648 -.00012498  00000+0 -78354-4 0  9995
2 67352  42.9991 126.5829 0001276 274.7387 342.2250 15.75045945  3428
STARLINK-36474          
1 67353U 26003V   26023.58335648  .00086636  00000+0  56398-3 0  9992
2 67353  42.9991 126.5783 0001387 258.5090   0.4715 15.74930687  3426
STARLINK-36448          
1 67354U 26003W   26023.58335648 -.00049295  00000+0 -31932-3 0  9992
2 67354  42.9992 126.5636 0001400 267.8300 356.8074 15.75064025  3429
STARLINK-36477          
1 67355U 26003X   26023.58335648 -.00078446  00000+0 -51127-3 0  9991
2 67355  42.9991 126.5736 0001376 266.0457 354.7376 15.75086106  3411
