CCSDS_OMM_VERS = 2.0
CREATION_DATE  = 
ORIGINATOR     = 

OBJECT_NAME    = STARLINK-36422
OBJECT_ID      = 2026-003L
CENTER_NAME    = EARTH
REF_FRAME      = TEME
TIME_SYSTEM    = UTC
MEAN_ELEMENT_THEORY = SGP/SGP4

EPOCH          = 2026-01-23T14:00:01.999872
MEAN_MOTION    = 15.74958520
ECCENTRICITY   = .00013997
INCLINATION    = 42.9991
RA_OF_ASC_NODE = 126.6205
ARG_OF_PERICENTER = 278.7692
MEAN_ANOMALY   = 322.8754

EPHEMERIS_TYPE = 0
CLASSIFICATION_TYPE = U
NORAD_CAT_ID   = 67344
ELEMENT_SET_NO = 999
REV_AT_EPOCH   = 341
BSTAR          = .82200752E-3
MEAN_MOTION_DOT = .127261E-2
MEAN_MOTION_DDOT = 0

CCSDS_OMM_VERS = 2.0
CREATION_DATE  = 
ORIGINATOR     = 

OBJECT_NAME    = STARLINK-35676
OBJECT_ID      = 2026-003M
CENTER_NAME    = EARTH
REF_FRAME      = TEME
TIME_SYSTEM    = UTC
MEAN_ELEMENT_THEORY = SGP/SGP4

EPOCH          = 2026-01-23T14:00:01.999872
MEAN_MOTION    = 15.74975934
ECCENTRICITY   = .00014548
INCLINATION    = 42.9991
RA_OF_ASC_NODE = 126.6171
ARG_OF_PERICENTER = 276.6595
MEAN_ANOMALY   = 326.8950

EPHEMERIS_TYPE = 0
CLASSIFICATION_TYPE = U
NORAD_CAT_ID   = 67345
ELEMENT_SET_NO = 999
REV_AT_EPOCH   = 341
BSTAR          = .71896383E-3
MEAN_MOTION_DOT = .111119E-2
MEAN_MOTION_DDOT = 0

CCSDS_OMM_VERS = 2.0
CREATION_DATE  = 
ORIGINATOR     = 

OBJECT_NAME    = STARLINK-36472
OBJECT_ID      = 2026-003N
CENTER_NAME    = EARTH
REF_FRAME      = TEME
TIME_SYSTEM    = UTC
MEAN_ELEMENT_THEORY = SGP/SGP4

EPOCH          = 2026-01-23T14:00:01.999872
MEAN_MOTION    = 15.74957513
ECCENTRICITY   = .00014802
INCLINATION    = 42.9991
RA_OF_ASC_NODE = 126.6119
ARG_OF_PERICENTER = 278.3820
MEAN_ANOMALY   = 327.0936

EPHEMERIS_TYPE = 0
CLASSIFICATION_TYPE = U
NORAD_CAT_ID   = 67346
ELEMENT_SET_NO = 999
REV_AT_EPOCH   = 341
BSTAR          = .89747186E-3
MEAN_MOTION_DOT = .139181E-2
MEAN_MOTION_DDOT = 0

CCSDS_OMM_VERS = 2.0
CREATION_DATE  = 
ORIGINATOR     = 

OBJECT_NAME    = STARLINK-36420
OBJECT_ID      = 2026-003P
CENTER_NAME    = EARTH
REF_FRAME      = TEME
TIME_SYSTEM    = UTC
MEAN_ELEMENT_THEORY = SGP/SGP4

EPOCH          = 2026-01-23T14:00:01.999872
MEAN_MOTION    = 15.74997842
ECCENTRICITY   = .00016257
INCLINATION    = 42.9991
RA_OF_ASC_NODE = 126.6022
ARG_OF_PERICENTER = 276.6404
MEAN_ANOMALY   = 332.6555

EPHEMERIS_TYPE = 0
CLASSIFICATION_TYPE = U
NORAD_CAT_ID   = 67347
ELEMENT_SET_NO = 999
REV_AT_EPOCH   = 342
BSTAR          = .40220599E-3
MEAN_MOTION_DOT = .61646E-3
MEAN_MOTION_DDOT = 0

CCSDS_OMM_VERS = 2.0
CREATION_DATE  = 
ORIGINATOR     = 

OBJECT_NAME    = STARLINK-36467
OBJECT_ID      = 2026-003Q
CENTER_NAME    = EARTH
REF_FRAME      = TEME
TIME_SYSTEM    = UTC
MEAN_ELEMENT_THEORY = SGP/SGP4

EPOCH          = 2026-01-23T14:00:01.999872
MEAN_MOTION    = 15.74998774
ECCENTRICITY   = .0001103
INCLINATION    = 42.9991
RA_OF_ASC_NODE = 126.6078
ARG_OF_PERICENTER = 286.8474
MEAN_ANOMALY   = 320.5211

EPHEMERIS_TYPE = 0
CLASSIFICATION_TYPE = U
NORAD_CAT_ID   = 67348
ELEMENT_SET_NO = 999
REV_AT_EPOCH   = 342
BSTAR          = .55021932E-3
MEAN_MOTION_DOT = .84743E-3
MEAN_MOTION_DDOT = 0

CCSDS_OMM_VERS = 2.0
CREATION_DATE  = 
ORIGINATOR     = 

OBJECT_NAME    = STARLINK-36457
OBJECT_ID      = 2026-003R
CENTER_NAME    = EARTH
REF_FRAME      = TEME
TIME_SYSTEM    = UTC
MEAN_ELEMENT_THEORY = SGP/SGP4

EPOCH          = 2026-01-23T14:00:01.999872
MEAN_MOTION    = 15.75012525
ECCENTRICITY   = .00013254
INCLINATION    = 42.9991
RA_OF_ASC_NODE = 126.5976
ARG_OF_PERICENTER = 273.2394
MEAN_ANOMALY   = 337.9653

EPHEMERIS_TYPE = 0
CLASSIFICATION_TYPE = U
NORAD_CAT_ID   = 67349
ELEMENT_SET_NO = 999
REV_AT_EPOCH   = 342
BSTAR          = .33330645E-3
MEAN_MOTION_DOT = .50971E-3
MEAN_MOTION_DDOT = 0

CCSDS_OMM_VERS = 2.0
CREATION_DATE  = 
ORIGINATOR     = 

OBJECT_NAME    = STARLINK-36475
OBJECT_ID      = 2026-003S
CENTER_NAME    = EARTH
REF_FRAME      = TEME
TIME_SYSTEM    = UTC
MEAN_ELEMENT_THEORY = SGP/SGP4

EPOCH          = 2026-01-23T14:00:01.999872
MEAN_MOTION    = 15.75009396
ECCENTRICITY   = .00012905
INCLINATION    = 42.9990
RA_OF_ASC_NODE = 126.5924
ARG_OF_PERICENTER = 274.2593
MEAN_ANOMALY   = 338.8673

EPHEMERIS_TYPE = 0
CLASSIFICATION_TYPE = U
NORAD_CAT_ID   = 67350
ELEMENT_SET_NO = 999
REV_AT_EPOCH   = 341
BSTAR          = .29717917E-3
MEAN_MOTION_DOT = .45358E-3
MEAN_MOTION_DDOT = 0

CCSDS_OMM_VERS = 2.0
CREATION_DATE  = 
ORIGINATOR     = 

OBJECT_NAME    = STARLINK-36478
OBJECT_ID      = 2026-003T
CENTER_NAME    = EARTH
REF_FRAME      = TEME
TIME_SYSTEM    = UTC
MEAN_ELEMENT_THEORY = SGP/SGP4

EPOCH          = 2026-01-23T14:00:01.999872
MEAN_MOTION    = 15.75050988
ECCENTRICITY   = .00014316
INCLINATION    = 42.9990
RA_OF_ASC_NODE = 126.5876
ARG_OF_PERICENTER = 267.7564
MEAN_ANOMALY   = 347.2881

EPHEMERIS_TYPE = 0
CLASSIFICATION_TYPE = U
NORAD_CAT_ID   = 67351
ELEMENT_SET_NO = 999
REV_AT_EPOCH   = 341
BSTAR          = -.7198958E-5
MEAN_MOTION_DOT = -.1584E-4
MEAN_MOTION_DDOT = 0

CCSDS_OMM_VERS = 2.0
CREATION_DATE  = 
ORIGINATOR     = 

OBJECT_NAME    = STARLINK-36479
OBJECT_ID      = 2026-003U
CENTER_NAME    = EARTH
REF_FRAME      = TEME
TIME_SYSTEM    = UTC
MEAN_ELEMENT_THEORY = SGP/SGP4

EPOCH          = 2026-01-23T14:00:01.999872
MEAN_MOTION    = 15.75045945
ECCENTRICITY   = .00012765
INCLINATION    = 42.9991
RA_OF_ASC_NODE = 126.5829
ARG_OF_PERICENTER = 274.7387
MEAN_ANOMALY   = 342.2250

EPHEMERIS_TYPE = 0
CLASSIFICATION_TYPE = U
NORAD_CAT_ID   = 67352
ELEMENT_SET_NO = 999
REV_AT_EPOCH   = 342
BSTAR          = -.78353969E-4
MEAN_MOTION_DOT = -.12498E-3
MEAN_MOTION_DDOT = 0

CCSDS_OMM_VERS = 2.0
CREATION_DATE  = 
ORIGINATOR     = 

OBJECT_NAME    = STARLINK-36474
OBJECT_ID      = 2026-003V
CENTER_NAME    = EARTH
REF_FRAME      = TEME
TIME_SYSTEM    = UTC
MEAN_ELEMENT_THEORY = SGP/SGP4

EPOCH          = 2026-01-23T14:00:01.999872
MEAN_MOTION    = 15.74930687
ECCENTRICITY   = .00013874
INCLINATION    = 42.9991
RA_OF_ASC_NODE = 126.5783
ARG_OF_PERICENTER = 258.5090
MEAN_ANOMALY   = 0.4715

EPHEMERIS_TYPE = 0
CLASSIFICATION_TYPE = U
NORAD_CAT_ID   = 67353
ELEMENT_SET_NO = 999
REV_AT_EPOCH   = 342
BSTAR          = .56397934E-3
MEAN_MOTION_DOT = .86636E-3
MEAN_MOTION_DDOT = 0

CCSDS_OMM_VERS = 2.0
CREATION_DATE  = 
ORIGINATOR     = 

OBJECT_NAME    = STARLINK-36448
OBJECT_ID      = 2026-003W
CENTER_NAME    = EARTH
REF_FRAME      = TEME
TIME_SYSTEM    = UTC
MEAN_ELEMENT_THEORY = SGP/SGP4

EPOCH          = 2026-01-23T14:00:01.999872
MEAN_MOTION    = 15.75064025
ECCENTRICITY   = .00014
INCLINATION    = 42.9992
RA_OF_ASC_NODE = 126.5636
ARG_OF_PERICENTER = 267.8300
MEAN_ANOMALY   = 356.8074

EPHEMERIS_TYPE = 0
CLASSIFICATION_TYPE = U
NORAD_CAT_ID   = 67354
ELEMENT_SET_NO = 999
REV_AT_EPOCH   = 342
BSTAR          = -.31932221E-3
MEAN_MOTION_DOT = -.49295E-3
MEAN_MOTION_DDOT = 0

CCSDS_OMM_VERS = 2.0
CREATION_DATE  = 
ORIGINATOR     = 

OBJECT_NAME    = STARLINK-36477
OBJECT_ID      = 2026-003X
CENTER_NAME    = EARTH
REF_FRAME      = TEME
TIME_SYSTEM    = UTC
MEAN_ELEMENT_THEORY = SGP/SGP4

EPOCH          = 2026-01-23T14:00:01.999872
MEAN_MOTION    = 15.75086106
ECCENTRICITY   = .00013768
INCLINATION    = 42.9991
RA_OF_ASC_NODE = 126.5736
ARG_OF_PERICENTER = 266.0457
MEAN_ANOMALY   = 354.7376

EPHEMERIS_TYPE = 0
CLASSIFICATION_TYPE = U
NORAD_CAT_ID   = 67355
ELEMENT_SET_NO = 999
REV_AT_EPOCH   = 341
BSTAR          = -.51126896E-3
MEAN_MOTION_DOT = -.78446E-3
MEAN_MOTION_DDOT = 0

